IRIDIUM 151             
1 43074U 17083E   26087.78457410  .00000104  00000+0  30084-4 0  9999
2 43074  86.4025 355.6663 0002223  85.3356 274.8094 14.34218092432612
IRIDIUM 134             
1 43075U 17083F   26087.82263127  .00000296  00000+0  98643-4 0  9992
2 43075  86.4027 355.6573 0002154  88.7469 271.3974 14.34218001432585
IRIDIUM 137             
1 43076U 17083G   26087.83532082  .00000313  00000+0  10464-3 0  9997
2 43076  86.4026 355.7431 0002663  84.6221 275.5278 14.34216172432653
IRIDIUM 141             
1 43077U 17083H   26087.82897017  .00000444  00000+0  15156-3 0  9997
2 43077  86.4023 355.5809 0002138  83.5792 276.5647 14.34214786432656
IRIDIUM 153             
1 43078U 17083J   26087.71138135  .00000211  00000+0  68392-4 0  9998
2 43078  86.3979 324.1376 0001860  84.6659 275.4749 14.34218525433749
IRIDIUM 131             
1 43079U 17083K   26087.81628583  .00000276  00000+0  91598-4 0  9996
2 43079  86.4029 355.7668 0002181  82.2858 277.8586 14.34219173432589
IRIDIUM 144             
1 43249U 18030A   26087.71772362  .00000273  00000+0  90478-4 0  9995
2 43249  86.3977 324.0662 0002225  88.9082 271.2368 14.34217616418606
IRIDIUM 149             
1 43250U 18030B   26087.72406491  .00000258  00000+0  85102-4 0  9996
2 43250  86.3976 324.0314 0002078  84.8774 275.2659 14.34220546418625
IRIDIUM 157             
1 43251U 18030C   26087.88263195  .00000133  00000+0  40455-4 0  9990
2 43251  86.3979 324.0164 0002135  86.9321 273.2119 14.34218111418621
IRIDIUM 140             
1 43252U 18030D   26087.90165976  .00000174  00000+0  55112-4 0  9993
2 43252  86.3980 324.0214 0002105  88.0518 272.0919 14.34218384418681
IRIDIUM 145             
1 43253U 18030E   26087.88897640 -.00000026  00000+0 -16477-4 0  9990
2 43253  86.3976 323.9989 0002277  93.3062 266.8395 14.34216887418615
IRIDIUM 146             
1 43254U 18030F   26087.73041052  .00000217  00000+0  70335-4 0  9996
2 43254  86.3979 324.0779 0002254  88.4590 271.6864 14.34218275418601
IRIDIUM 148             
1 43255U 18030G   26087.69869685  .00000128  00000+0  38557-4 0  9993
2 43255  86.3981 324.1331 0002188  86.2974 273.8472 14.34218155418637
IRIDIUM 142             
1 43256U 18030H   26087.73675369  .00000248  00000+0  81640-4 0  9997
2 43256  86.3976 324.0091 0002340  91.9987 268.1477 14.34218472418602
IRIDIUM 150             
1 43257U 18030J   26087.70503933  .00000183  00000+0  58427-4 0  9997
2 43257  86.3980 324.1360 0002108  88.2410 271.9027 14.34218073418622
IRIDIUM 143             
1 43258U 18030K   26087.89531822  .00000056  00000+0  12964-4 0  9991
2 43258  86.3982 324.1457 0002108  90.9132 269.2305 14.34217324418585
IRIDIUM 161             
1 43478U 18047C   26087.81455063  .00000329  00000+0  91765-4 0  9996
2 43478  86.4464 122.0885 0002219  84.5443 275.6011 14.43286085413548
